{"type": "FeatureCollection", "features": [ {"type": "Feature", "properties": {"norad_id": 67029, "name": "STARLINK-36190", "group": "last-30-days", "lat": -33.99057821012788, "lon": -73.6131796257875, "alt_km": 300.8855300532514, "timestamp": "2025-12-20T16:47:35.026611+00:00", "meta": {"OBJECT_NAME": "STARLINK-36190", "OBJECT_ID": "2025-293AC", "EPOCH": "2025-12-20T12:00:02.000160", "MEAN_MOTION": 15.92556927, "ECCENTRICITY": 0.0003867, "INCLINATION": 69.993, "RA_OF_ASC_NODE": 301.1895, "ARG_OF_PERICENTER": 268.7981, "MEAN_ANOMALY": 350.4634, "EPHEMERIS_TYPE": 0, "CLASSIFICATION_TYPE": "U", "NORAD_CAT_ID": 67029, "ELEMENT_SET_NO": 999, "REV_AT_EPOCH": 147, "BSTAR": -0.004233, "MEAN_MOTION_DOT": -0.0144133, "MEAN_MOTION_DDOT": 0.00059677}, "tle": {"line1": "1 67029U 25293AC  25354.50002315 -.01441330  59677-3 -42330-2 0  9999", "line2": "2 67029  69.9930 301.1895 0003867 268.7981 350.4634 15.92556927  1472"}}, "geometry": {"type": "Point", "coordinates": [-73.6131796257875, -33.99057821012788]}}, {"type": "Feature", "properties": {"norad_id": 67030, "name": "STARLINK-36138", "group": "last-30-days", "lat": -42.37558926251734, "lon": 55.251844308009886, "alt_km": 312.33925927722976, "timestamp": "2025-12-20T16:47:35.026622+00:00", "meta": {"OBJECT_NAME": "STARLINK-36138", "OBJECT_ID": "2025-294A", "EPOCH": "2025-12-20T12:00:02.000160", "MEAN_MOTION": 15.87811313, "ECCENTRICITY": 0.0001413, "INCLINATION": 42.9996, "RA_OF_ASC_NODE": 134.7531, "ARG_OF_PERICENTER": 266.5464, "MEAN_ANOMALY": 309.4701, "EPHEMERIS_TYPE": 0, "CLASSIFICATION_TYPE": "U", "NORAD_CAT_ID": 67030, "ELEMENT_SET_NO": 999, "REV_AT_EPOCH": 136, "BSTAR": -0.0055017, "MEAN_MOTION_DOT": -0.01346401, "MEAN_MOTION_DDOT": 0}, "tle": {"line1": "1 67030U 25294A   25354.50002315 -.01346401  00000+0 -55017-2 0  9993", "line2": "2 67030  42.9996 134.7531 0001413 266.5464 309.4701 15.87811313  1365"}}, "geometry": {"type": "Point", "coordinates": [55.251844308009886, -42.37558926251734]}}, {"type": "Feature", "properties": {"norad_id": 67031, "name": "STARLINK-36150", "group": "last-30-days", "lat": -42.13318967219584, "lon": 57.39177322454126, "alt_km": 312.1535105266221, "timestamp": "2025-12-20T16:47:35.026632+00:00", "meta": {"OBJECT_NAME": "STARLINK-36150", "OBJECT_ID": "2025-294B", "EPOCH": "2025-12-20T12:00:02.000160", "MEAN_MOTION": 15.87849486, "ECCENTRICITY": 0.0001521, "INCLINATION": 42.9998, "RA_OF_ASC_NODE": 134.7488, "ARG_OF_PERICENTER": 268.5197, "MEAN_ANOMALY": 309.078, "EPHEMERIS_TYPE": 0, "CLASSIFICATION_TYPE": "U", "NORAD_CAT_ID": 67031, "ELEMENT_SET_NO": 999, "REV_AT_EPOCH": 155, "BSTAR": -0.0055087, "MEAN_MOTION_DOT": -0.01350261, "MEAN_MOTION_DDOT": 0}, "tle": {"line1": "1 67031U 25294B   25354.50002315 -.01350261  00000+0 -55087-2 0  9990", "line2": "2 67031  42.9998 134.7488 0001521 268.5197 309.0780 15.87849486  1550"}}, "geometry": {"type": "Point", "coordinates": [57.39177322454126, -42.13318967219584]}}, {"type": "Feature", "properties": {"norad_id": 67032, "name": "STARLINK-36131", "group": "last-30-days", "lat": -41.345852031571, "lon": 62.71336314473301, "alt_km": 312.02730325521316, "timestamp": "2025-12-20T16:47:35.026644+00:00", "meta": {"OBJECT_NAME": "STARLINK-36131", "OBJECT_ID": "2025-294C", "EPOCH": "2025-12-20T12:00:02.000160", "MEAN_MOTION": 15.87919298, "ECCENTRICITY": 0.0001479, "INCLINATION": 42.9998, "RA_OF_ASC_NODE": 134.7387, "ARG_OF_PERICENTER": 261.3303, "MEAN_ANOMALY": 320.2764, "EPHEMERIS_TYPE": 0, "CLASSIFICATION_TYPE": "U", "NORAD_CAT_ID": 67032, "ELEMENT_SET_NO": 999, "REV_AT_EPOCH": 136, "BSTAR": -0.005528, "MEAN_MOTION_DOT": -0.01358554, "MEAN_MOTION_DDOT": 0}, "tle": {"line1": "1 67032U 25294C   25354.50002315 -.01358554  00000+0 -55280-2 0  9999", "line2": "2 67032  42.9998 134.7387 0001479 261.3303 320.2764 15.87919298  1366"}}, "geometry": {"type": "Point", "coordinates": [62.71336314473301, -41.345852031571]}}, {"type": "Feature", "properties": {"norad_id": 67033, "name": "STARLINK-36137", "group": "last-30-days", "lat": -41.77456223179711, "lon": 60.04000369451423, "alt_km": 312.07626776174857, "timestamp": "2025-12-20T16:47:35.026654+00:00", "meta": {"OBJECT_NAME": "STARLINK-36137", "OBJECT_ID": "2025-294D", "EPOCH": "2025-12-20T12:00:02.000160", "MEAN_MOTION": 15.87884763, "ECCENTRICITY": 0.0001514, "INCLINATION": 42.9997, "RA_OF_ASC_NODE": 134.7441, "ARG_OF_PERICENTER": 264.7149, "MEAN_ANOMALY": 314.8644, "EPHEMERIS_TYPE": 0, "CLASSIFICATION_TYPE": "U", "NORAD_CAT_ID": 67033, "ELEMENT_SET_NO": 999, "REV_AT_EPOCH": 136, "BSTAR": -0.0055128, "MEAN_MOTION_DOT": -0.01353234, "MEAN_MOTION_DDOT": 0}, "tle": {"line1": "1 67033U 25294D   25354.50002315 -.01353234  00000+0 -55128-2 0  9991", "line2": "2 67033  42.9997 134.7441 0001514 264.7149 314.8644 15.87884763  1366"}}, "geometry": {"type": "Point", "coordinates": [60.04000369451423, -41.77456223179711]}}, {"type": "Feature", "properties": {"norad_id": 67034, "name": "STARLINK-36140", "group": "last-30-days", "lat": -40.807941742307506, "lon": 65.58566201321095, "alt_km": 311.72636003202115, "timestamp": "2025-12-20T16:47:35.026664+00:00", "meta": {"OBJECT_NAME": "STARLINK-36140", "OBJECT_ID": "2025-294E", "EPOCH": "2025-12-20T06:00:02.999808", "MEAN_MOTION": 15.88668928, "ECCENTRICITY": 0.00016534, "INCLINATION": 42.9997, "RA_OF_ASC_NODE": 136.2775, "ARG_OF_PERICENTER": 258.8744, "MEAN_ANOMALY": 333.7865, "EPHEMERIS_TYPE": 0, "CLASSIFICATION_TYPE": "U", "NORAD_CAT_ID": 67034, "ELEMENT_SET_NO": 999, "REV_AT_EPOCH": 132, "BSTAR": -0.0052207572, "MEAN_MOTION_DOT": -0.01335981, "MEAN_MOTION_DDOT": 0}, "tle": {"line1": "1 67034U 25294E   25354.25003472 -.01335981  00000+0 -52208-2 0  9994", "line2": "2 67034  42.9997 136.2775 0001653 258.8744 333.7865 15.88668928  1328"}}, "geometry": {"type": "Point", "coordinates": [65.58566201321095, -40.807941742307506]}}, {"type": "Feature", "properties": {"norad_id": 67035, "name": "STARLINK-36085", "group": "last-30-days", "lat": -39.508369204519724, "lon": 71.2468795286631, "alt_km": 311.7315187636368, "timestamp": "2025-12-20T16:47:35.026674+00:00", "meta": {"OBJECT_NAME": "STARLINK-36085", "OBJECT_ID": "2025-294F", "EPOCH": "2025-12-20T12:00:02.000160", "MEAN_MOTION": 15.88016699, "ECCENTRICITY": 0.0001498, "INCLINATION": 43, "RA_OF_ASC_NODE": 134.7218, "ARG_OF_PERICENTER": 263.5265, "MEAN_ANOMALY": 324.7838, "EPHEMERIS_TYPE": 0, "CLASSIFICATION_TYPE": "U", "NORAD_CAT_ID": 67035, "ELEMENT_SET_NO": 999, "REV_AT_EPOCH": 136, "BSTAR": -0.0056203, "MEAN_MOTION_DOT": -0.01384309, "MEAN_MOTION_DDOT": 0}, "tle": {"line1": "1 67035U 25294F   25354.50002315 -.01384309  00000+0 -56203-2 0  9995", "line2": "2 67035  43.0000 134.7218 0001498 263.5265 324.7838 15.88016699  1365"}}, "geometry": {"type": "Point", "coordinates": [71.2468795286631, -39.508369204519724]}}, {"type": "Feature", "properties": {"norad_id": 67036, "name": "STARLINK-36125", "group": "last-30-days", "lat": -40.19437901198985, "lon": 68.43759075785721, "alt_km": 311.8288022958177, "timestamp": "2025-12-20T16:47:35.026684+00:00", "meta": {"OBJECT_NAME": "STARLINK-36125", "OBJECT_ID": "2025-294G", "EPOCH": "2025-12-20T12:00:02.000160", "MEAN_MOTION": 15.87982739, "ECCENTRICITY": 0.0001541, "INCLINATION": 42.9998, "RA_OF_ASC_NODE": 134.7277, "ARG_OF_PERICENTER": 259.9207, "MEAN_ANOMALY": 326.1402, "EPHEMERIS_TYPE": 0, "CLASSIFICATION_TYPE": "U", "NORAD_CAT_ID": 67036, "ELEMENT_SET_NO": 999, "REV_AT_EPOCH": 155, "BSTAR": -0.0055713, "MEAN_MOTION_DOT": -0.0137174, "MEAN_MOTION_DDOT": 0}, "tle": {"line1": "1 67036U 25294G   25354.50002315 -.01371740  00000+0 -55713-2 0  9996", "line2": "2 67036  42.9998 134.7277 0001541 259.9207 326.1402 15.87982739  1559"}}, "geometry": {"type": "Point", "coordinates": [68.43759075785721, -40.19437901198985]}}, {"type": "Feature", "properties": {"norad_id": 67037, "name": "STARLINK-35732", "group": "last-30-days", "lat": -38.69793873281148, "lon": 74.19767362661266, "alt_km": 311.6529697933711, "timestamp": "2025-12-20T16:47:35.026694+00:00", "meta": {"OBJECT_NAME": "STARLINK-35732", "OBJECT_ID": "2025-294H", "EPOCH": "2025-12-20T12:00:02.000160", "MEAN_MOTION": 15.88043035, "ECCENTRICITY": 0.000153, "INCLINATION": 42.9998, "RA_OF_ASC_NODE": 134.716, "ARG_OF_PERICENTER": 260.9542, "MEAN_ANOMALY": 329.7725, "EPHEMERIS_TYPE": 0, "CLASSIFICATION_TYPE": "U", "NORAD_CAT_ID": 67037, "ELEMENT_SET_NO": 999, "REV_AT_EPOCH": 147, "BSTAR": -0.0056199, "MEAN_MOTION_DOT": -0.01385853, "MEAN_MOTION_DDOT": 0}, "tle": {"line1": "1 67037U 25294H   25354.50002315 -.01385853  00000+0 -56199-2 0  9996", "line2": "2 67037  42.9998 134.7160 0001530 260.9542 329.7725 15.88043035  1479"}}, "geometry": {"type": "Point", "coordinates": [74.19767362661266, -38.69793873281148]}}, {"type": "Feature", "properties": {"norad_id": 67038, "name": "STARLINK-35775", "group": "last-30-days", "lat": -37.95586612036151, "lon": 76.638963185705, "alt_km": 311.5068228521768, "timestamp": "2025-12-20T16:47:35.026704+00:00", "meta": {"OBJECT_NAME": "STARLINK-35775", "OBJECT_ID": "2025-294J", "EPOCH": "2025-12-20T12:00:02.000160", "MEAN_MOTION": 15.88087518, "ECCENTRICITY": 0.0001469, "INCLINATION": 42.9999, "RA_OF_ASC_NODE": 134.7107, "ARG_OF_PERICENTER": 267.5544, "MEAN_ANOMALY": 325.2062, "EPHEMERIS_TYPE": 0, "CLASSIFICATION_TYPE": "U", "NORAD_CAT_ID": 67038, "ELEMENT_SET_NO": 999, "REV_AT_EPOCH": 147, "BSTAR": -0.0056945, "MEAN_MOTION_DOT": -0.0140456, "MEAN_MOTION_DDOT": 0}, "tle": {"line1": "1 67038U 25294J   25354.50002315 -.01404560  00000+0 -56945-2 0  9993", "line2": "2 67038  42.9999 134.7107 0001469 267.5544 325.2062 15.88087518  1477"}}, "geometry": {"type": "Point", "coordinates": [76.638963185705, -37.95586612036151]}}]}